OBJECT_NAME,OBJECT_ID,EPOCH,MEAN_MOTION,ECCENTRICITY,INCLINATION,RA_OF_ASC_NODE,ARG_OF_PERICENTER,MEAN_ANOMALY,EPHEMERIS_TYPE,CLASSIFICATION_TYPE,NORAD_CAT_ID,ELEMENT_SET_NO,REV_AT_EPOCH,BSTAR,MEAN_MOTION_DOT,MEAN_MOTION_DDOT
ONEWEB-0368,2021-090R,2026-06-15T13:06:28.832256,13.20770811,.0001458,87.9183,274.7779,83.1429,276.9870,0,U,49294,999,23076,.21513E-3,.1E-5,0
ONEWEB-0369,2021-090S,2026-06-15T10:30:59.158080,13.19724450,.0001781,87.9167,305.3226,97.8762,262.2573,0,U,49295,999,22618,-.25133E-3,-.88E-6,0
ONEWEB-0370,2021-090T,2026-06-15T08:30:07.538688,13.20770283,.000216,87.9195,274.8054,105.6970,254.4402,0,U,49296,999,22962,-.35612E-4,-.1E-7,0
ONEWEB-0371,2021-090U,2026-06-15T10:42:20.891232,13.19724552,.0001854,87.9172,305.3132,102.6213,257.5127,0,U,49297,999,22622,-.28533E-5,.12E-6,0
ONEWEB-0372,2021-090V,2026-06-15T08:15:22.751712,13.20771330,.0001958,87.9195,274.8090,101.3686,258.7668,0,U,49298,999,22959,.50793E-4,.34E-6,0
ONEWEB-0373,2021-090W,2026-06-15T07:02:51.671040,13.20771789,.0002077,87.9191,274.8195,100.3720,259.7648,0,U,49299,999,23077,.98783E-4,.53E-6,0
ONEWEB-0374,2021-090X,2026-06-15T08:49:57.105120,13.14503017,.0002183,87.8966,290.0597,85.2793,274.8586,0,U,49300,999,22732,-.44208E-3,-.151E-5,0
ONEWEB-0375,2021-090Y,2026-06-15T08:34:59.363328,13.20771262,.0002314,87.9195,274.7984,87.8583,272.2815,0,U,49301,999,23028,-.2149E-4,.4E-7,0
ONEWEB-0376,2021-090Z,2026-06-15T08:50:53.863872,13.19725049,.0001679,87.9175,305.3285,101.1277,259.0045,0,U,49302,999,22621,-.77986E-5,.1E-6,0
ONEWEB-0377,2021-090AA,2026-06-15T08:15:41.236128,13.20814612,.0002924,87.9130,274.8016,93.4323,266.7144,0,U,49303,999,23027,.5297E-3,.229E-5,0
ONEWEB-0378,2021-090AB,2026-06-15T06:55:46.825824,13.20770282,.0001963,87.9189,274.8191,95.9930,264.1427,0,U,49304,999,22953,.10603E-3,.56E-6,0
ONEWEB-0379,2021-090AC,2026-06-15T08:43:05.694240,13.14502813,.0001911,87.8965,290.0713,96.3679,263.7668,0,U,49305,999,22732,-.35678E-3,-.119E-5,0
ONEWEB-0380,2021-090AD,2026-06-15T10:35:32.321184,13.19724826,.0002059,87.9169,305.3193,97.2545,262.8822,0,U,49306,999,22619,-.10137E-3,-.28E-6,0
ONEWEB-0381,2021-090AE,2026-06-15T08:10:44.687136,13.20772351,.0002101,87.9196,274.8083,93.1480,266.9894,0,U,49307,999,22958,.21679E-3,.101E-5,0
ONEWEB-0382,2021-090AF,2026-06-15T13:18:36.111168,13.20770658,.0002015,87.9194,274.7601,91.7301,268.4063,0,U,49308,999,22960,.29176E-3,.132E-5,0
ONEWEB-0383,2021-090AG,2026-06-15T08:33:56.655936,13.14500978,.0001838,87.8968,290.0639,95.2745,264.8595,0,U,49309,999,22735,-.10837E-3,-.27E-6,0
ONEWEB-0384,2021-090AH,2026-06-15T13:02:19.524192,13.20812642,.000198,87.9195,274.8059,86.6863,273.4497,0,U,49310,999,22961,.16936E-3,.82E-6,0
ONEWEB-0385,2021-090AJ,2026-06-15T13:08:55.294080,13.20773119,.0001999,87.9194,274.7666,94.2955,265.8407,0,U,49311,999,22958,.17235E-3,.83E-6,0
ONEWEB-0386,2021-090AK,2026-06-15T08:05:53.845728,13.20771961,.0001944,87.9198,274.7994,92.8896,267.2460,0,U,49312,999,22957,.14295E-3,.71E-6,0
ONEWEB-0387,2021-090AL,2026-06-15T13:11:20.884992,13.20771752,.0002326,87.9184,274.7796,96.4818,263.6580,0,U,49313,999,22960,.78011E-4,.45E-6,0
ONEWEB-0388,2021-090AM,2026-06-15T10:28:42.913920,13.19724809,.0001881,87.9167,305.3183,94.2115,265.9233,0,U,49314,999,22618,-.10125E-4,.9E-7,0
ONEWEB-0389,2021-132A,2026-06-15T12:40:29.676000,13.17648720,.0002166,87.9132,6.1982,82.7319,277.4058,0,U,50469,999,21786,.16576E-3,.77E-6,0
ONEWEB-0390,2021-132B,2026-06-15T12:42:55.437120,13.17648977,.0001968,87.9133,6.1988,94.1321,266.0036,0,U,50470,999,21786,.26698E-3,.117E-5,0
ONEWEB-0391,2021-132C,2026-06-15T12:45:21.363264,13.17648497,.0002689,87.9133,6.2081,86.2967,273.8472,0,U,50471,999,21786,.79142E-4,.44E-6,0
ONEWEB-0392,2021-132D,2026-06-15T11:39:45.467424,13.17649168,.0002219,87.9142,6.1853,83.6165,276.5219,0,U,50472,999,21789,.65633E-4,.38E-6,0
ONEWEB-0393,2021-132E,2026-06-15T12:53:51.546624,13.17650320,.0002007,87.9134,6.1924,85.4895,274.6466,0,U,50473,999,21789,.20396E-3,.92E-6,0
ONEWEB-0394,2021-132F,2026-06-15T12:06:47.579904,13.18682084,.0001808,87.9172,335.7767,86.8676,273.2663,0,U,50474,999,22137,.2609E-2,.1042E-4,0
ONEWEB-0395,2021-132G,2026-06-15T08:03:43.413696,13.11419968,.0002011,87.8886,21.4360,89.1755,270.9603,0,U,50475,999,21547,.52821E-4,.31E-6,0
ONEWEB-0396,2021-132H,2026-06-15T11:57:03.237696,13.18685421,.0001947,87.9169,335.7907,87.6496,272.4859,0,U,50476,999,22141,.26108E-3,.116E-5,0
ONEWEB-0397,2021-132J,2026-06-15T12:18:54.611712,13.18685506,.0001868,87.9169,335.7878,84.7913,275.3432,0,U,50477,999,22139,.15996E-3,.76E-6,0
ONEWEB-0398,2021-132K,2026-06-15T12:46:55.701696,13.11414271,.0001945,87.8893,21.3872,94.5340,265.6011,0,U,50478,999,21539,-.54691E-3,-.181E-5,0
