[
  {
    "name": "ONEWEB-0368",
    "noradId": "49294",
    "line1": "1 49294U 21090R   26166.54616704  .00000100  00000+0  21513-3 0  9999",
    "line2": "2 49294  87.9183 274.7779 0001458  83.1429 276.9870 13.20770811230761"
  },
  {
    "name": "ONEWEB-0369",
    "noradId": "49295",
    "line1": "1 49295U 21090S   26166.43818470 -.00000088  00000+0 -25133-3 0  9991",
    "line2": "2 49295  87.9167 305.3226 0001781  97.8762 262.2573 13.19724450226188"
  },
  {
    "name": "ONEWEB-0370",
    "noradId": "49296",
    "line1": "1 49296U 21090T   26166.35425392 -.00000001  00000+0 -35612-4 0  9999",
    "line2": "2 49296  87.9195 274.8054 0002160 105.6970 254.4402 13.20770283229623"
  },
  {
    "name": "ONEWEB-0371",
    "noradId": "49297",
    "line1": "1 49297U 21090U   26166.44607513  .00000012  00000+0 -28533-5 0  9993",
    "line2": "2 49297  87.9172 305.3132 0001854 102.6213 257.5127 13.19724552226229"
  },
  {
    "name": "ONEWEB-0372",
    "noradId": "49298",
    "line1": "1 49298U 21090V   26166.34401333  .00000034  00000+0  50793-4 0  9990",
    "line2": "2 49298  87.9195 274.8090 0001958 101.3686 258.7668 13.20771330229597"
  },
  {
    "name": "ONEWEB-0373",
    "noradId": "49299",
    "line1": "1 49299U 21090W   26166.29365360  .00000053  00000+0  98783-4 0  9996",
    "line2": "2 49299  87.9191 274.8195 0002077 100.3720 259.7648 13.20771789230770"
  },
  {
    "name": "ONEWEB-0374",
    "noradId": "49300",
    "line1": "1 49300U 21090X   26166.36802205 -.00000151  00000+0 -44208-3 0  9994",
    "line2": "2 49300  87.8966 290.0597 0002183  85.2793 274.8586 13.14503017227323"
  },
  {
    "name": "ONEWEB-0375",
    "noradId": "49301",
    "line1": "1 49301U 21090Y   26166.35763152  .00000004  00000+0 -21490-4 0  9996",
    "line2": "2 49301  87.9195 274.7984 0002314  87.8583 272.2815 13.20771262230281"
  },
  {
    "name": "ONEWEB-0376",
    "noradId": "49302",
    "line1": "1 49302U 21090Z   26166.36867898  .00000010  00000+0 -77986-5 0  9999",
    "line2": "2 49302  87.9175 305.3285 0001679 101.1277 259.0045 13.19725049226214"
  },
  {
    "name": "ONEWEB-0377",
    "noradId": "49303",
    "line1": "1 49303U 21090AA  26166.34422727  .00000229  00000+0  52970-3 0  9991",
    "line2": "2 49303  87.9130 274.8016 0002924  93.4323 266.7144 13.20814612230270"
  },
  {
    "name": "ONEWEB-0378",
    "noradId": "49304",
    "line1": "1 49304U 21090AB  26166.28873641  .00000056  00000+0  10603-3 0  9995",
    "line2": "2 49304  87.9189 274.8191 0001963  95.9930 264.1427 13.20770282229539"
  },
  {
    "name": "ONEWEB-0379",
    "noradId": "49305",
    "line1": "1 49305U 21090AC  26166.36326035 -.00000119  00000+0 -35678-3 0  9996",
    "line2": "2 49305  87.8965 290.0713 0001911  96.3679 263.7668 13.14502813227322"
  },
  {
    "name": "ONEWEB-0380",
    "noradId": "49306",
    "line1": "1 49306U 21090AD  26166.44134631 -.00000028  00000+0 -10137-3 0  9997",
    "line2": "2 49306  87.9169 305.3193 0002059  97.2545 262.8822 13.19724826226199"
  },
  {
    "name": "ONEWEB-0381",
    "noradId": "49307",
    "line1": "1 49307U 21090AE  26166.34079499  .00000101  00000+0  21679-3 0  9990",
    "line2": "2 49307  87.9196 274.8083 0002101  93.1480 266.9894 13.20772351229587"
  },
  {
    "name": "ONEWEB-0382",
    "noradId": "49308",
    "line1": "1 49308U 21090AF  26166.55458462  .00000132  00000+0  29176-3 0  9999",
    "line2": "2 49308  87.9194 274.7601 0002015  91.7301 268.4063 13.20770658229607"
  },
  {
    "name": "ONEWEB-0383",
    "noradId": "49309",
    "line1": "1 49309U 21090AG  26166.35690574 -.00000027  00000+0 -10837-3 0  9999",
    "line2": "2 49309  87.8968 290.0639 0001838  95.2745 264.8595 13.14500978227350"
  },
  {
    "name": "ONEWEB-0384",
    "noradId": "49310",
    "line1": "1 49310U 21090AH  26166.54328153  .00000082  00000+0  16936-3 0  9998",
    "line2": "2 49310  87.9195 274.8059 0001980  86.6863 273.4497 13.20812642229613"
  },
  {
    "name": "ONEWEB-0385",
    "noradId": "49311",
    "line1": "1 49311U 21090AJ  26166.54786220  .00000083  00000+0  17235-3 0  9996",
    "line2": "2 49311  87.9194 274.7666 0001999  94.2955 265.8407 13.20773119229580"
  },
  {
    "name": "ONEWEB-0386",
    "noradId": "49312",
    "line1": "1 49312U 21090AK  26166.33742877  .00000071  00000+0  14295-3 0  9994",
    "line2": "2 49312  87.9198 274.7994 0001944  92.8896 267.2460 13.20771961229574"
  },
  {
    "name": "ONEWEB-0387",
    "noradId": "49313",
    "line1": "1 49313U 21090AL  26166.54954728  .00000045  00000+0  78011-4 0  9996",
    "line2": "2 49313  87.9184 274.7796 0002326  96.4818 263.6580 13.20771752229604"
  },
  {
    "name": "ONEWEB-0388",
    "noradId": "49314",
    "line1": "1 49314U 21090AM  26166.43660780  .00000009  00000+0 -10125-4 0  9990",
    "line2": "2 49314  87.9167 305.3183 0001881  94.2115 265.9233 13.19724809226187"
  },
  {
    "name": "ONEWEB-0389",
    "noradId": "50469",
    "line1": "1 50469U 21132A   26166.52812125  .00000077  00000+0  16576-3 0  9991",
    "line2": "2 50469  87.9132   6.1982 0002166  82.7319 277.4058 13.17648720217863"
  },
  {
    "name": "ONEWEB-0390",
    "noradId": "50470",
    "line1": "1 50470U 21132B   26166.52980830  .00000117  00000+0  26698-3 0  9993",
    "line2": "2 50470  87.9133   6.1988 0001968  94.1321 266.0036 13.17648977217865"
  },
  {
    "name": "ONEWEB-0391",
    "noradId": "50471",
    "line1": "1 50471U 21132C   26166.53149726  .00000044  00000+0  79142-4 0  9998",
    "line2": "2 50471  87.9133   6.2081 0002689  86.2967 273.8472 13.17648497217867"
  },
  {
    "name": "ONEWEB-0392",
    "noradId": "50472",
    "line1": "1 50472U 21132D   26166.48594291  .00000038  00000+0  65633-4 0  9997",
    "line2": "2 50472  87.9142   6.1853 0002219  83.6165 276.5219 13.17649168217892"
  },
  {
    "name": "ONEWEB-0393",
    "noradId": "50473",
    "line1": "1 50473U 21132E   26166.53740216  .00000092  00000+0  20396-3 0  9990",
    "line2": "2 50473  87.9134   6.1924 0002007  85.4895 274.6466 13.17650320217893"
  },
  {
    "name": "ONEWEB-0394",
    "noradId": "50474",
    "line1": "1 50474U 21132F   26166.50471736  .00001042  00000+0  26090-2 0  9998",
    "line2": "2 50474  87.9172 335.7767 0001808  86.8676 273.2663 13.18682084221377"
  },
  {
    "name": "ONEWEB-0395",
    "noradId": "50475",
    "line1": "1 50475U 21132G   26166.33591914  .00000031  00000+0  52821-4 0  9991",
    "line2": "2 50475  87.8886  21.4360 0002011  89.1755 270.9603 13.11419968215472"
  },
  {
    "name": "ONEWEB-0396",
    "noradId": "50476",
    "line1": "1 50476U 21132H   26166.49795414  .00000116  00000+0  26108-3 0  9992",
    "line2": "2 50476  87.9169 335.7907 0001947  87.6496 272.4859 13.18685421221415"
  },
  {
    "name": "ONEWEB-0397",
    "noradId": "50477",
    "line1": "1 50477U 21132J   26166.51313208  .00000076  00000+0  15996-3 0  9991",
    "line2": "2 50477  87.9169 335.7878 0001868  84.7913 275.3432 13.18685506221397"
  },
  {
    "name": "ONEWEB-0398",
    "noradId": "50478",
    "line1": "1 50478U 21132K   26166.53258914 -.00000181  00000+0 -54691-3 0  9990",
    "line2": "2 50478  87.8893  21.3872 0001945  94.5340 265.6011 13.11414271215392"
  }
]